1 20253U 89077A   26123.59719073 -.00000364  00000-0  00000+0 0  9991
2 20253  12.4342 351.4347 0006676  19.5866 191.1448  1.00277095260116
1 20776U 90079A   26123.77330185  .00000129  00000-0  00000+0 0  9996
2 20776  13.3546 350.1182 0002736  51.6426 131.6243  1.00274011130446
1 22787U 93056A   26123.81210853  .00000128  00000-0  00000+0 0  9991
2 22787  11.8800   3.8003 0009093 354.9592 183.9837  1.00267856118103
1 23467U 95003A   26123.62649352 -.00000017  00000-0  00000+0 0  9998
2 23467   9.7068  13.3807 0003355  25.9117 220.1022  1.00274460114501
1 23967U 96042A   26122.09280969 -.00000264  00000-0  00000-0 0  9997
2 23967  11.0758  17.3330 0007287 105.2033  94.5240  1.00229363109028
1 25544U 98067A   26123.81265450  .00005869  00000-0  11427-3 0  9991
2 25544  51.6305 159.7493 0007297  20.0235 340.1038 15.49081120564877
1 25967U 99063A   26121.05280395 -.00000186  00000-0  00000-0 0  9996
2 25967   9.8528  27.4558 0003310 339.9791 207.8203  1.00271697 96877
1 27168U 02001A   26123.60003296  .00000035  00000-0  00000+0 0  9994
2 27168  11.1277  22.1772 0100003   7.0567  67.1859  1.00271883 32512
1 27607U 02058C   26123.78334288  .00001317  00000-0  17233-3 0  9995
2 27607  64.5519 266.3578 0075624 270.5579  88.6862 14.82950396257874
1 28117U 03057A   26123.78170855 -.00000098  00000-0  00000+0 0  9996
2 28117   8.9344  34.0466 0002625 353.5618 190.9144  1.00272315 82007
1 28899U 05044A   26123.69141741 -.00000253  00000-0  00000+0 0  9996
2 28899   5.0390  43.7520 0002993   2.3725 207.8502  1.00273315 75073
1 30794U 07007B   26123.85685647 -.00000263  00000-0  00000+0 0  9991
2 30794   5.1898  74.2648 0004091 339.2009 211.9932  1.00270341 70256
1 32294U 07056B   26123.55780821  .00000148  00000-0  00000+0 0  9990
2 32294   5.1407  74.0206 0003849 321.5171  51.8058  1.00272428 67750
1 35943U 09054B   26123.85052977  .00000032  00000-0  00000+0 0  9993
2 35943   0.0671  85.5042 0003830 328.4705 176.9923  1.00273866 60867
1 36582U 10021B   26123.81959404  .00000096  00000-0  00000+0 0  9996
2 36582   0.0082 242.9792 0003041 176.2177 110.7180  1.00272180 58518
1 38098U 12011A   26123.85234978 -.00000050  00000-0  00000+0 0  9998
2 38098   0.0097 301.1176 0001755 109.5472 190.0279  1.00270209  6747
1 39034U 12075A   26123.84853644  .00000107  00000-0  00000+0 0  9997
2 39034   0.0705 344.0661 0003836  62.0718 173.8329  1.00270915 48719
1 39215U 13038A   26123.70036676  .00000141  00000-0  00000+0 0  9999
2 39215   2.9932   1.7161 0002684  67.3469  69.5436  1.00273924 43578
1 40296U 14069A   26123.31773841  .00000214  00000-0  00000-0 0  9996
2 40296  63.4449 219.7550 6664527 270.8564  19.4515  2.00586330 84330
1 40931U 15052B   25151.18580175  .00001241  00000-0  78118-4 0  9996
2 40931   6.0006  24.0987 0012733 338.8432  21.1169 14.78805930523159
1 43678U 18084H   26123.81917348  .00003633  00000-0  29513-3 0  9992
2 43678  98.1071 318.1343 0012674 323.9622  36.0745 15.00234639409568
1 43700U 18090A   26123.84316308  .00000152  00000-0  00000+0 0  9996
2 43700   0.0164 278.2348 0001571 149.4363 123.4237  1.00270739 27230
1 43803U 18099AX  26123.83765257  .00018076  00000-0  58169-3 0  9996
2 43803  97.4158 186.5610 0007054  77.4893 282.7138 15.32260297406834
1 44453U 19046A   26121.36014638 -.00000065  00000-0  00000-0 0  9995
2 44453  63.0835  56.7817 7062489 274.7350  14.8983  2.00610991 49403
1 44909U 19096E   26123.75446955  .00000027  00000-0  70480-4 0  9992
2 44909  82.5254   9.2333 0216445 248.1964 109.5985 12.79748003296667
1 45254U 20015A   26122.60486318 -.00000140  00000-0  00000+0 0  9992
2 45254  65.5249 323.8123 6872142 278.6984  14.8349  2.00602039 45379
1 52145U 22030A   26122.11227181  .00000224  00000-0  00000-0 0  9998
2 52145  62.6778 145.7272 6771914 272.8964  17.7306  2.00616662 30103
1 57167U 23091B   26010.59363612  .08733485  25619-5  12458-2 0  9993
2 57167  97.4978  91.1570 0009532 282.8011  77.2220 16.34765267141469
1 59112U 24043Q   26123.85925354  .00036966  00000-0  53838-3 0  9996
2 59112  97.5490 271.6633 0006373   9.7223 350.4153 15.55622453120994
1 67291U 25313AV  26123.74629998  .00015188  00000-0  60763-3 0  9995
2 67291  97.3941 199.4573 0010278 145.6603 214.5301 15.25127706 19216
1 26635U 00080A   21013.46269075 0.00000000  00000-0  00000-0 0    09
2 26635   9.2857  29.8038 0014383 186.3086 173.6859  1.00273100    09
1 34810U 09020A   26118.58802400 0.00000000  00000-0  00000-0 0    05
2 34810   3.0809  80.0043 0003222 250.4250 109.5484  1.00270000    01
1 40614U 15022B   25359.93496764 0.00000000  00000-0  00000-0 0    00
2 40614   0.0160 108.2839 0003453 352.8976   7.0980  1.00270000    04
